[{"OBJECT_NAME":"JILIN-1 GAOFEN 03D47","OBJECT_ID":"2022-167L","EPOCH":"2026-03-09T22:56:46.924224","MEAN_MOTION":15.31686941,"ECCENTRICITY":0.00089304,"INCLINATION":97.6835,"RA_OF_ASC_NODE":234.6581,"ARG_OF_PERICENTER":110.4031,"MEAN_ANOMALY":249.8169,"EPHEMERIS_TYPE":0,"CLASSIFICATION_TYPE":"U","NORAD_CAT_ID":54692,"ELEMENT_SET_NO":999,"REV_AT_EPOCH":18014,"BSTAR":0.00047294748,"MEAN_MOTION_DOT":0.00014417,"MEAN_MOTION_DDOT":0},{"OBJECT_NAME":"STARLINK-34814","OBJECT_ID":"2025-167Y","EPOCH":"2026-03-09T21:43:11.129088","MEAN_MOTION":15.30212554,"ECCENTRICITY":0.00020906,"INCLINATION":53.1593,"RA_OF_ASC_NODE":25.6015,"ARG_OF_PERICENTER":101.9763,"MEAN_ANOMALY":258.1473,"EPHEMERIS_TYPE":0,"CLASSIFICATION_TYPE":"U","NORAD_CAT_ID":65100,"ELEMENT_SET_NO":999,"REV_AT_EPOCH":3351,"BSTAR":0.00099375595,"MEAN_MOTION_DOT":0.00029201,"MEAN_MOTION_DDOT":0}]
